{
  "type": "FeatureCollection",
  "features": [
    {
      "type": "Feature",
      "properties": {
        "norad_id": 66690,
        "name": "TRANSPORTER-15AA",
        "group": "last-30-days",
        "lat": 11.27746599529614,
        "lon": -106.31721100723476,
        "alt_km": 514.8687455117342,
        "timestamp": "2025-12-26T16:33:54.329614+00:00",
        "meta_object_name": "TRANSPORTER-15AA",
        "meta_object_id": "2025-276AA",
        "meta_epoch": "2025-12-26T06:19:35.681952",
        "meta_mean_motion": 15.17102796,
        "meta_eccentricity": 0.00036848,
        "meta_inclination": 97.4387,
        "meta_ra_of_asc_node": 71.7711,
        "meta_arg_of_pericenter": 231.5482,
        "meta_mean_anomaly": 128.5421,
        "meta_ephemeris_type": 0,
        "meta_classification_type": "U",
        "meta_norad_cat_id": 66690,
        "meta_element_set_no": 999,
        "meta_rev_at_epoch": 417,
        "meta_bstar": 0.00045953175,
        "meta_mean_motion_dot": 9.046e-05,
        "meta_mean_motion_ddot": 0,
        "tle_line1": "1 66690U 25276AA  25360.26360743  .00009046  00000+0  45953-3 0  9993",
        "tle_line2": "2 66690  97.4387  71.7711 0003684 231.5482 128.5421 15.17102796  4171"
      },
      "geometry": {
        "type": "Point",
        "coordinates": [
          -106.31721100723476,
          11.27746599529614
        ]
      }
    },
    {
      "type": "Feature",
      "properties": {
        "norad_id": 66691,
        "name": "TRANSPORTER-15AB",
        "group": "last-30-days",
        "lat": -3.0684711711760886,
        "lon": -108.1971824448378,
        "alt_km": 515.5214793119012,
        "timestamp": "2025-12-26T16:33:54.329624+00:00",
        "meta_object_name": "TRANSPORTER-15AB",
        "meta_object_id": "2025-276AB",
        "meta_epoch": "2025-12-26T04:40:55.637760",
        "meta_mean_motion": 15.1736891,
        "meta_eccentricity": 0.00037841,
        "meta_inclination": 97.4412,
        "meta_ra_of_asc_node": 71.7179,
        "meta_arg_of_pericenter": 233.5315,
        "meta_mean_anomaly": 126.557,
        "meta_ephemeris_type": 0,
        "meta_classification_type": "U",
        "meta_norad_cat_id": 66691,
        "meta_element_set_no": 999,
        "meta_rev_at_epoch": 416,
        "meta_bstar": 0.00057033489,
        "meta_mean_motion_dot": 0.00011333,
        "meta_mean_motion_ddot": 0,
        "tle_line1": "1 66691U 25276AB  25360.19508840  .00011333  00000+0  57033-3 0  9992",
        "tle_line2": "2 66691  97.4412  71.7179 0003784 233.5315 126.5570 15.17368910  4161"
      },
      "geometry": {
        "type": "Point",
        "coordinates": [
          -108.1971824448378,
          -3.0684711711760886
        ]
      }
    },
    {
      "type": "Feature",
      "properties": {
        "norad_id": 66692,
        "name": "TRANSPORTER-15AC",
        "group": "last-30-days",
        "lat": -21.225166038902213,
        "lon": -110.69420125494922,
        "alt_km": 518.0261345916888,
        "timestamp": "2025-12-26T16:33:54.329634+00:00",
        "meta_object_name": "TRANSPORTER-15AC",
        "meta_object_id": "2025-276AC",
        "meta_epoch": "2025-12-26T04:36:08.314560",
        "meta_mean_motion": 15.17447229,
        "meta_eccentricity": 0.00017803,
        "meta_inclination": 97.4413,
        "meta_ra_of_asc_node": 71.7258,
        "meta_arg_of_pericenter": 246.4774,
        "meta_mean_anomaly": 113.6272,
        "meta_ephemeris_type": 0,
        "meta_classification_type": "U",
        "meta_norad_cat_id": 66692,
        "meta_element_set_no": 999,
        "meta_rev_at_epoch": 416,
        "meta_bstar": 0.00030393663,
        "meta_mean_motion_dot": 6.017e-05,
        "meta_mean_motion_ddot": 0,
        "tle_line1": "1 66692U 25276AC  25360.19176290  .00006017  00000+0  30394-3 0  9997",
        "tle_line2": "2 66692  97.4413  71.7258 0001780 246.4774 113.6272 15.17447229  4164"
      },
      "geometry": {
        "type": "Point",
        "coordinates": [
          -110.69420125494922,
          -21.225166038902213
        ]
      }
    },
    {
      "type": "Feature",
      "properties": {
        "norad_id": 66693,
        "name": "TRANSPORTER-15AD",
        "group": "last-30-days",
        "lat": -24.053027724459486,
        "lon": -111.14700754736995,
        "alt_km": 516.9883588780858,
        "timestamp": "2025-12-26T16:33:54.329643+00:00",
        "meta_object_name": "TRANSPORTER-15AD",
        "meta_object_id": "2025-276AD",
        "meta_epoch": "2025-12-26T06:10:26.609952",
        "meta_mean_motion": 15.17714122,
        "meta_eccentricity": 0.00032262,
        "meta_inclination": 97.4367,
        "meta_ra_of_asc_node": 71.77,
        "meta_arg_of_pericenter": 258.9833,
        "meta_mean_anomaly": 101.1038,
        "meta_ephemeris_type": 0,
        "meta_classification_type": "U",
        "meta_norad_cat_id": 66693,
        "meta_element_set_no": 999,
        "meta_rev_at_epoch": 417,
        "meta_bstar": 0.0007483531,
        "meta_mean_motion_dot": 0.00015046,
        "meta_mean_motion_ddot": 0,
        "tle_line1": "1 66693U 25276AD  25360.25725243  .00015046  00000+0  74835-3 0  9993",
        "tle_line2": "2 66693  97.4367  71.7700 0003226 258.9833 101.1038 15.17714122  4178"
      },
      "geometry": {
        "type": "Point",
        "coordinates": [
          -111.14700754736995,
          -24.053027724459486
        ]
      }
    },
    {
      "type": "Feature",
      "properties": {
        "norad_id": 66694,
        "name": "YAM-9",
        "group": "last-30-days",
        "lat": -32.72933656594991,
        "lon": -112.60315345265656,
        "alt_km": 518.2633009669189,
        "timestamp": "2025-12-26T16:33:54.329652+00:00",
        "meta_object_name": "YAM-9",
        "meta_object_id": "2025-276AE",
        "meta_epoch": "2025-12-26T06:08:06.045792",
        "meta_mean_motion": 15.17620639,
        "meta_eccentricity": 0.00014604,
        "meta_inclination": 97.4413,
        "meta_ra_of_asc_node": 71.7885,
        "meta_arg_of_pericenter": 234.9682,
        "meta_mean_anomaly": 125.1415,
        "meta_ephemeris_type": 0,
        "meta_classification_type": "U",
        "meta_norad_cat_id": 66694,
        "meta_element_set_no": 999,
        "meta_rev_at_epoch": 417,
        "meta_bstar": 0.00050628216,
        "meta_mean_motion_dot": 0.00010122,
        "meta_mean_motion_ddot": 0,
        "tle_line1": "1 66694U 25276AE  25360.25562553  .00010122  00000+0  50628-3 0  9991",
        "tle_line2": "2 66694  97.4413  71.7885 0001460 234.9682 125.1415 15.17620639  4173"
      },
      "geometry": {
        "type": "Point",
        "coordinates": [
          -112.60315345265656,
          -32.72933656594991
        ]
      }
    },
    {
      "type": "Feature",
      "properties": {
        "norad_id": 66695,
        "name": "IRIDE FM1",
        "group": "last-30-days",
        "lat": -77.43931122899708,
        "lon": 108.14110643277566,
        "alt_km": 519.031105827019,
        "timestamp": "2025-12-26T16:33:54.329662+00:00",
        "meta_object_name": "IRIDE FM1",
        "meta_object_id": "2025-276AF",
        "meta_epoch": "2025-12-26T04:15:46.412064",
        "meta_mean_motion": 15.18318094,
        "meta_eccentricity": 0.00012847,
        "meta_inclination": 97.4385,
        "meta_ra_of_asc_node": 71.7357,
        "meta_arg_of_pericenter": 125.5692,
        "meta_mean_anomaly": 234.5662,
        "meta_ephemeris_type": 0,
        "meta_classification_type": "U",
        "meta_norad_cat_id": 66695,
        "meta_element_set_no": 999,
        "meta_rev_at_epoch": 416,
        "meta_bstar": 0.00088332893,
        "meta_mean_motion_dot": 0.00018088,
        "meta_mean_motion_ddot": 0,
        "tle_line1": "1 66695U 25276AF  25360.17762051  .00018088  00000+0  88333-3 0  9991",
        "tle_line2": "2 66695  97.4385  71.7357 0001284 125.5692 234.5662 15.18318094  4164"
      },
      "geometry": {
        "type": "Point",
        "coordinates": [
          108.14110643277566,
          -77.43931122899708
        ]
      }
    },
    {
      "type": "Feature",
      "properties": {
        "norad_id": 66696,
        "name": "IRIDE FM2",
        "group": "last-30-days",
        "lat": -17.41996483536043,
        "lon": -110.15041538170375,
        "alt_km": 517.4686962394317,
        "timestamp": "2025-12-26T16:33:54.329671+00:00",
        "meta_object_name": "IRIDE FM2",
        "meta_object_id": "2025-276AG",
        "meta_epoch": "2025-12-26T06:12:06.572160",
        "meta_mean_motion": 15.17458783,
        "meta_eccentricity": 0.00024662,
        "meta_inclination": 97.4383,
        "meta_ra_of_asc_node": 71.7749,
        "meta_arg_of_pericenter": 249.6402,
        "meta_mean_anomaly": 110.4567,
        "meta_ephemeris_type": 0,
        "meta_classification_type": "U",
        "meta_norad_cat_id": 66696,
        "meta_element_set_no": 999,
        "meta_rev_at_epoch": 417,
        "meta_bstar": 0.00034274955,
        "meta_mean_motion_dot": 6.797e-05,
        "meta_mean_motion_ddot": 0,
        "tle_line1": "1 66696U 25276AG  25360.25840940  .00006797  00000+0  34275-3 0  9995",
        "tle_line2": "2 66696  97.4383  71.7749 0002466 249.6402 110.4567 15.17458783  4174"
      },
      "geometry": {
        "type": "Point",
        "coordinates": [
          -110.15041538170375,
          -17.41996483536043
        ]
      }
    }
  ]
}